{"type": "FeatureCollection", "features": [{"type": "Feature", "properties": {"from": "Junín", "ref": "SM-C", "name": "FC San Martín", "km": 78.5, "rail_km": 78.5, "disused_km": 0.0, "gauge": "1676", "ends": "junction", "end_name": "Juan Bautista Alberdi", "end": [-61.8159, -34.43602], "stations": 8, "osm_points": 67, "points_at_50m": 5, "station_names": ["Saforcada", "Las Parvas", "Blandengues", "Leandro N. Alem", "Vedia (San Martín)", "Vedia (FC Belgrano)", "Edmundo Banbury Perkins", "Juan Bautista Alberdi"]}, "geometry": {"type": "LineString", "coordinates": [[-60.980625, -34.592528], [-60.981232, -34.592532], [-60.981723, -34.59252], [-60.982749, -34.592466], [-60.983567, -34.592392], [-60.98444, -34.592284], [-60.989642, -34.591373], [-61.015959, -34.586511], [-61.017303, -34.586239], [-61.040676, -34.581921], [-61.07479, -34.575582], [-61.075633, -34.575444], [-61.078117, -34.574969], [-61.081304, -34.574374], [-61.086118, -34.573548], [-61.094352, -34.571983], [-61.102332, -34.570511], [-61.102469, -34.570482], [-61.104934, -34.570023], [-61.105311, -34.569946], [-61.109388, -34.569199], [-61.109539, -34.569174], [-61.124586, -34.566413], [-61.129889, -34.565439], [-61.135039, -34.564455], [-61.250456, -34.542844], [-61.253237, -34.542367], [-61.286883, -34.53603], [-61.348919, -34.52446], [-61.349012, -34.524442], [-61.379367, -34.518697], [-61.386741, -34.517384], [-61.390378, -34.51666], [-61.393894, -34.515985], [-61.397511, -34.51532], [-61.406731, -34.513578], [-61.432143, -34.5088], [-61.432802, -34.508677], [-61.484956, -34.498853], [-61.490783, -34.497784], [-61.490855, -34.497771], [-61.496745, -34.496658], [-61.50562, -34.494952], [-61.523784, -34.491554], [-61.5322, -34.489949], [-61.535928, -34.489247], [-61.53844, -34.488768], [-61.541165, -34.488256], [-61.542225, -34.48806], [-61.556171, -34.485407], [-61.578702, -34.481152], [-61.583925, -34.480163], [-61.618989, -34.473514], [-61.662198, -34.465321], [-61.666811, -34.464453], [-61.671233, -34.463619], [-61.719909, -34.454435], [-61.752501, -34.448178], [-61.757126, -34.44729], [-61.757247, -34.447267], [-61.779457, -34.443003], [-61.80528, -34.438046], [-61.805737, -34.437958], [-61.811834, -34.436792], [-61.814454, -34.436298], [-61.814749, -34.436237], [-61.815896, -34.436019]]}}, {"type": "Feature", "properties": {"from": "Junín", "ref": "SM-7", "name": "FC San Martín", "km": 64.3, "rail_km": 64.3, "disused_km": 0.0, "gauge": "1676", "ends": "junction", "end_name": "Arribeños", "end": [-61.36133, -34.20835], "stations": 5, "osm_points": 122, "points_at_50m": 18, "station_names": ["Saforcada", "Agustina", "Fortín Tiburcio", "Arenales", "Arribeños"]}, "geometry": {"type": "LineString", "coordinates": [[-60.980627, -34.592506], [-60.981229, -34.592506], [-60.981728, -34.592494], [-60.98275, -34.592443], [-60.983565, -34.592352], [-60.984434, -34.592252], [-60.989622, -34.591343], [-60.999648, -34.589499], [-61.015944, -34.586498], [-61.017263, -34.586218], [-61.035238, -34.582888], [-61.040723, -34.58187], [-61.074366, -34.575622], [-61.075618, -34.575389], [-61.078083, -34.574931], [-61.081946, -34.57421], [-61.082589, -34.574133], [-61.082775, -34.574096], [-61.08316, -34.574015], [-61.083502, -34.573923], [-61.083851, -34.573779], [-61.084225, -34.573615], [-61.084527, -34.573437], [-61.084704, -34.57334], [-61.085024, -34.573112], [-61.085404, -34.572783], [-61.085708, -34.572469], [-61.085983, -34.572119], [-61.086236, -34.571725], [-61.086415, -34.5714], [-61.086562, -34.571012], [-61.086677, -34.570669], [-61.086741, -34.57032], [-61.086773, -34.569911], [-61.086754, -34.56948], [-61.086214, -34.56351], [-61.086127, -34.562783], [-61.085852, -34.561001], [-61.085827, -34.560805], [-61.083914, -34.549213], [-61.073383, -34.484808], [-61.069325, -34.460032], [-61.068807, -34.456702], [-61.068301, -34.453445], [-61.065776, -34.437804], [-61.065662, -34.436823], [-61.065606, -34.436136], [-61.06559, -34.435468], [-61.065582, -34.434736], [-61.065621, -34.434208], [-61.065691, -34.43354], [-61.065835, -34.432727], [-61.065953, -34.432126], [-61.066139, -34.431467], [-61.06648, -34.430336], [-61.066848, -34.429441], [-61.067103, -34.428892], [-61.067595, -34.427932], [-61.068228, -34.426894], [-61.068835, -34.425994], [-61.080728, -34.410761], [-61.112498, -34.369924], [-61.117757, -34.363137], [-61.128905, -34.34879], [-61.129407, -34.34816], [-61.131237, -34.34586], [-61.132898, -34.343744], [-61.133225, -34.343328], [-61.137758, -34.337392], [-61.13821, -34.336855], [-61.138884, -34.336138], [-61.139485, -34.335569], [-61.185248, -34.297724], [-61.186704, -34.296581], [-61.189311, -34.294952], [-61.191381, -34.294077], [-61.193326, -34.29344], [-61.194342, -34.293219], [-61.210002, -34.290171], [-61.214164, -34.289396], [-61.215072, -34.289258], [-61.216122, -34.289146], [-61.24525, -34.28735], [-61.26946, -34.285986], [-61.270229, -34.285924], [-61.271174, -34.285828], [-61.272082, -34.285671], [-61.273106, -34.285402], [-61.27406, -34.285045], [-61.274799, -34.284722], [-61.275539, -34.284345], [-61.276264, -34.283892], [-61.276999, -34.283362], [-61.278297, -34.282313], [-61.290067, -34.272545], [-61.290371, -34.272294], [-61.292864, -34.27023], [-61.295601, -34.267956], [-61.299048, -34.265095], [-61.300128, -34.264195], [-61.30303, -34.2618], [-61.303124, -34.261727], [-61.305393, -34.259861], [-61.315643, -34.251441], [-61.324261, -34.244207], [-61.325153, -34.243392], [-61.325843, -34.242713], [-61.326448, -34.242022], [-61.333162, -34.233513], [-61.333358, -34.233272], [-61.336985, -34.228717], [-61.34528, -34.21826], [-61.345712, -34.217788], [-61.346961, -34.216584], [-61.347316, -34.216292], [-61.347672, -34.216], [-61.348565, -34.215361], [-61.349675, -34.214688], [-61.350773, -34.21408], [-61.357162, -34.210626], [-61.360424, -34.208847], [-61.361334, -34.208351]]}}, {"type": "Feature", "properties": {"from": "Junín", "ref": "SM-B", "name": "FC San Martín", "km": 28.6, "rail_km": 28.6, "disused_km": 0.0, "gauge": "1676", "ends": "junction", "end_name": "Membrillar", "end": [-60.61363, -34.59144], "stations": 3, "osm_points": 32, "points_at_50m": 4, "station_names": ["La Oriental", "O’Higgins", "Membrillar"]}, "geometry": {"type": "LineString", "coordinates": [[-60.920792, -34.575308], [-60.914972, -34.573546], [-60.909122, -34.571736], [-60.894179, -34.567158], [-60.89396, -34.567089], [-60.888368, -34.565379], [-60.880639, -34.563018], [-60.879464, -34.562723], [-60.87881, -34.562581], [-60.878027, -34.562418], [-60.877246, -34.562279], [-60.876328, -34.562182], [-60.875607, -34.562106], [-60.874738, -34.562056], [-60.873921, -34.562033], [-60.873075, -34.562029], [-60.872244, -34.562056], [-60.87138, -34.562114], [-60.870568, -34.562198], [-60.839179, -34.565794], [-60.820924, -34.567886], [-60.816347, -34.568368], [-60.811862, -34.568897], [-60.811643, -34.568923], [-60.756208, -34.575256], [-60.703645, -34.581204], [-60.70019, -34.581602], [-60.694505, -34.582265], [-60.677755, -34.584167], [-60.649822, -34.587348], [-60.615768, -34.59119], [-60.613625, -34.591444]]}}, {"type": "Feature", "properties": {"from": "Junín", "ref": "SM-5", "name": "FC Mitre", "km": 35.1, "rail_km": 0.0, "disused_km": 35.1, "gauge": "1676", "ends": "junction", "end_name": "8 km from Rafael Obligado", "end": [-60.76653, -34.28685], "stations": 2, "osm_points": 47, "points_at_50m": 5, "station_names": ["Agustín Roca", "Rafael Obligado"]}, "geometry": {"type": "LineString", "coordinates": [[-60.920426, -34.573438], [-60.915991, -34.569764], [-60.913723, -34.567888], [-60.899588, -34.556066], [-60.899228, -34.555701], [-60.898581, -34.555012], [-60.898301, -34.554777], [-60.896078, -34.55301], [-60.89585, -34.552828], [-60.894406, -34.551681], [-60.89415, -34.551477], [-60.891595, -34.549446], [-60.890679, -34.54872], [-60.888331, -34.546554], [-60.886586, -34.544429], [-60.885878, -34.543366], [-60.885072, -34.542118], [-60.881282, -34.535527], [-60.879978, -34.533259], [-60.876567, -34.527415], [-60.872406, -34.520232], [-60.867391, -34.511515], [-60.864942, -34.507236], [-60.864107, -34.505789], [-60.862492, -34.50295], [-60.856919, -34.493232], [-60.85294, -34.486387], [-60.848739, -34.47909], [-60.842627, -34.468665], [-60.83618, -34.457296], [-60.821789, -34.431913], [-60.81098, -34.413227], [-60.810873, -34.413042], [-60.798418, -34.391505], [-60.795867, -34.386793], [-60.794703, -34.384077], [-60.793837, -34.381307], [-60.792149, -34.374974], [-60.788431, -34.362811], [-60.78754, -34.359574], [-60.786622, -34.356397], [-60.785716, -34.353292], [-60.77773, -34.325512], [-60.776623, -34.321695], [-60.773557, -34.311394], [-60.769691, -34.297772], [-60.766528, -34.286853]]}}]}